STARLINK-31621          
1 59465U 24068L   26068.24638670 -.00002550  00000+0 -83213-4 0  9991
2 59465  43.0064  37.1437 0001369 259.3328 100.7369 15.27567599108454
FLOCK 4G-21             
1 62651U 25009AU  26068.19487675  .00013648  00000+0  49619-3 0  9998
2 62651  97.4032 151.1274 0000465 329.5782  30.5431 15.28381075 63677
