[{"OBJECT_NAME":"STARLINK-31621","OBJECT_ID":"2024-068L","EPOCH":"2026-03-09T05:54:47.810880","MEAN_MOTION":15.27567599,"ECCENTRICITY":0.00013699,"INCLINATION":43.0064,"RA_OF_ASC_NODE":37.1437,"ARG_OF_PERICENTER":259.3328,"MEAN_ANOMALY":100.7369,"EPHEMERIS_TYPE":0,"CLASSIFICATION_TYPE":"U","NORAD_CAT_ID":59465,"ELEMENT_SET_NO":999,"REV_AT_EPOCH":10845,"BSTAR":-8.3213466e-5,"MEAN_MOTION_DOT":-2.55e-5,"MEAN_MOTION_DDOT":0},{"OBJECT_NAME":"FLOCK 4G-21","OBJECT_ID":"2025-009AU","EPOCH":"2026-03-09T04:40:37.351200","MEAN_MOTION":15.28381075,"ECCENTRICITY":4.655e-5,"INCLINATION":97.4032,"RA_OF_ASC_NODE":151.1274,"ARG_OF_PERICENTER":329.5782,"MEAN_ANOMALY":30.5431,"EPHEMERIS_TYPE":0,"CLASSIFICATION_TYPE":"U","NORAD_CAT_ID":62651,"ELEMENT_SET_NO":999,"REV_AT_EPOCH":6367,"BSTAR":0.00049618643,"MEAN_MOTION_DOT":0.00013648,"MEAN_MOTION_DDOT":0}]
